{
  "type": "FeatureCollection",
  "features": [
    {
      "type": "Feature",
      "properties": {
        "norad_id": 41384,
        "name": "IRNSS-1F",
        "group": "gnss",
        "lat": -4.399601431067576,
        "lon": -14.114317628863478,
        "alt_km": 35746.158663130715,
        "timestamp": "2025-12-08T15:42:50.033370+00:00",
        "meta_object_name": "IRNSS-1F",
        "meta_object_id": "2016-015A",
        "meta_epoch": "2025-12-08T01:46:20.561376",
        "meta_mean_motion": 1.00270051,
        "meta_eccentricity": 0.00224659,
        "meta_inclination": 4.8688,
        "meta_ra_of_asc_node": 101.4155,
        "meta_arg_of_pericenter": 180.1007,
        "meta_mean_anomaly": 214.5202,
        "meta_ephemeris_type": 0,
        "meta_classification_type": "U",
        "meta_norad_cat_id": 41384,
        "meta_element_set_no": 999,
        "meta_rev_at_epoch": 3575,
        "meta_bstar": 0,
        "meta_mean_motion_dot": 1.6e-06,
        "meta_mean_motion_ddot": 0,
        "tle_line1": "1 41384U 16015A   25342.07384909  .00000160  00000+0  00000+0 0  9994",
        "tle_line2": "2 41384   4.8688 101.4155 0022465 180.1007 214.5202  1.00270051 35751"
      },
      "geometry": {
        "type": "Point",
        "coordinates": [
          -14.114317628863478,
          -4.399601431067576
        ]
      }
    },
    {
      "type": "Feature",
      "properties": {
        "norad_id": 41434,
        "name": "BEIDOU-2 IGSO-6 (C13)",
        "group": "gnss",
        "lat": 4.6182785445752,
        "lon": 42.65337426851277,
        "alt_km": 35964.04662820617,
        "timestamp": "2025-12-08T15:42:50.033396+00:00",
        "meta_object_name": "BEIDOU-2 IGSO-6 (C13)",
        "meta_object_id": "2016-021A",
        "meta_epoch": "2025-12-01T15:57:35.287200",
        "meta_mean_motion": 1.00256562,
        "meta_eccentricity": 0.00591323,
        "meta_inclination": 59.9483,
        "meta_ra_of_asc_node": 40.0119,
        "meta_arg_of_pericenter": 231.2834,
        "meta_mean_anomaly": 130.8807,
        "meta_ephemeris_type": 0,
        "meta_classification_type": "U",
        "meta_norad_cat_id": 41434,
        "meta_element_set_no": 999,
        "meta_rev_at_epoch": 3550,
        "meta_bstar": 0,
        "meta_mean_motion_dot": -1.55e-06,
        "meta_mean_motion_ddot": 0,
        "tle_line1": "1 41434U 16021A   25335.66499175 -.00000155  00000+0  00000+0 0  9991",
        "tle_line2": "2 41434  59.9483  40.0119 0059132 231.2834 130.8807  1.00256562 35501"
      },
      "geometry": {
        "type": "Point",
        "coordinates": [
          42.65337426851277,
          4.6182785445752
        ]
      }
    },
    {
      "type": "Feature",
      "properties": {
        "norad_id": 41469,
        "name": "IRNSS-1G",
        "group": "gnss",
        "lat": -1.5539838275873556,
        "lon": 82.72503675595759,
        "alt_km": 35772.387370884506,
        "timestamp": "2025-12-08T15:42:50.033411+00:00",
        "meta_object_name": "IRNSS-1G",
        "meta_object_id": "2016-027A",
        "meta_epoch": "2025-12-08T07:22:13.065888",
        "meta_mean_motion": 1.00251482,
        "meta_eccentricity": 0.00046504,
        "meta_inclination": 4.7221,
        "meta_ra_of_asc_node": 102.2137,
        "meta_arg_of_pericenter": 336.3682,
        "meta_mean_anomaly": 238.6067,
        "meta_ephemeris_type": 0,
        "meta_classification_type": "U",
        "meta_norad_cat_id": 41469,
        "meta_element_set_no": 999,
        "meta_rev_at_epoch": 3526,
        "meta_bstar": 0,
        "meta_mean_motion_dot": -3.35e-06,
        "meta_mean_motion_ddot": 0,
        "tle_line1": "1 41469U 16027A   25342.30709567 -.00000335  00000+0  00000+0 0  9993",
        "tle_line2": "2 41469   4.7221 102.2137 0004650 336.3682 238.6067  1.00251482 35265"
      },
      "geometry": {
        "type": "Point",
        "coordinates": [
          82.72503675595759,
          -1.5539838275873556
        ]
      }
    },
    {
      "type": "Feature",
      "properties": {
        "norad_id": 41549,
        "name": "GSAT0211 (GALILEO 14)",
        "group": "gnss",
        "lat": -41.83751816608111,
        "lon": -171.6010312773315,
        "alt_km": 23222.93742932375,
        "timestamp": "2025-12-08T15:42:50.033426+00:00",
        "meta_object_name": "GSAT0211 (GALILEO 14)",
        "meta_object_id": "2016-030A",
        "meta_epoch": "2025-12-07T13:40:58.264320",
        "meta_mean_motion": 1.70472997,
        "meta_eccentricity": 0.00040128,
        "meta_inclination": 55.154,
        "meta_ra_of_asc_node": 226.9659,
        "meta_arg_of_pericenter": 14.4678,
        "meta_mean_anomaly": 345.6377,
        "meta_ephemeris_type": 0,
        "meta_classification_type": "U",
        "meta_norad_cat_id": 41549,
        "meta_element_set_no": 999,
        "meta_rev_at_epoch": 5940,
        "meta_bstar": 0,
        "meta_mean_motion_dot": 2.3e-07,
        "meta_mean_motion_ddot": 0,
        "tle_line1": "1 41549U 16030A   25341.57011880  .00000023  00000+0  00000+0 0  9991",
        "tle_line2": "2 41549  55.1540 226.9659 0004012  14.4678 345.6377  1.70472997 59400"
      },
      "geometry": {
        "type": "Point",
        "coordinates": [
          -171.6010312773315,
          -41.83751816608111
        ]
      }
    },
    {
      "type": "Feature",
      "properties": {
        "norad_id": 41550,
        "name": "GSAT0210 (GALILEO 13)",
        "group": "gnss",
        "lat": 26.010122681435817,
        "lon": 27.088606664923038,
        "alt_km": 23219.483818864854,
        "timestamp": "2025-12-08T15:42:50.033441+00:00",
        "meta_object_name": "GSAT0210 (GALILEO 13)",
        "meta_object_id": "2016-030B",
        "meta_epoch": "2025-12-07T19:51:37.971648",
        "meta_mean_motion": 1.70473554,
        "meta_eccentricity": 0.00013454,
        "meta_inclination": 55.1532,
        "meta_ra_of_asc_node": 226.9569,
        "meta_arg_of_pericenter": 243.5769,
        "meta_mean_anomaly": 116.5022,
        "meta_ephemeris_type": 0,
        "meta_classification_type": "U",
        "meta_norad_cat_id": 41550,
        "meta_element_set_no": 999,
        "meta_rev_at_epoch": 5940,
        "meta_bstar": 0,
        "meta_mean_motion_dot": 2.1e-07,
        "meta_mean_motion_ddot": 0,
        "tle_line1": "1 41550U 16030B   25341.82752282  .00000021  00000+0  00000+0 0  9997",
        "tle_line2": "2 41550  55.1532 226.9569 0001345 243.5769 116.5022  1.70473554 59407"
      },
      "geometry": {
        "type": "Point",
        "coordinates": [
          27.088606664923038,
          26.010122681435817
        ]
      }
    },
    {
      "type": "Feature",
      "properties": {
        "norad_id": 41586,
        "name": "BEIDOU-2 G7 (C03)",
        "group": "gnss",
        "lat": -0.09793693987661772,
        "lon": 63.833560512087104,
        "alt_km": 35768.081841683634,
        "timestamp": "2025-12-08T15:42:50.033453+00:00",
        "meta_object_name": "BEIDOU-2 G7 (C03)",
        "meta_object_id": "2016-037A",
        "meta_epoch": "2025-12-08T07:16:51.079872",
        "meta_mean_motion": 1.00269333,
        "meta_eccentricity": 0.00044434,
        "meta_inclination": 1.7461,
        "meta_ra_of_asc_node": 67.7601,
        "meta_arg_of_pericenter": 0.4598,
        "meta_mean_anomaly": 228.7804,
        "meta_ephemeris_type": 0,
        "meta_classification_type": "U",
        "meta_norad_cat_id": 41586,
        "meta_element_set_no": 999,
        "meta_rev_at_epoch": 497,
        "meta_bstar": 0,
        "meta_mean_motion_dot": -3.51e-06,
        "meta_mean_motion_ddot": 0,
        "tle_line1": "1 41586U 16037A   25342.30336898 -.00000351  00000+0  00000+0 0  9995",
        "tle_line2": "2 41586   1.7461  67.7601 0004443   0.4598 228.7804  1.00269333  4971"
      },
      "geometry": {
        "type": "Point",
        "coordinates": [
          63.833560512087104,
          -0.09793693987661772
        ]
      }
    },
    {
      "type": "Feature",
      "properties": {
        "norad_id": 41589,
        "name": "EUTELSAT 117 WEST B (WAAS/PRN 131)",
        "group": "gnss",
        "lat": 0.009684326284683837,
        "lon": -163.63407236211802,
        "alt_km": 35787.39883929774,
        "timestamp": "2025-12-08T15:42:50.033467+00:00",
        "meta_object_name": "EUTELSAT 117 WEST B (WAAS/PRN 131)",
        "meta_object_id": "2016-038B",
        "meta_epoch": "2025-12-08T05:51:27.089856",
        "meta_mean_motion": 1.00271014,
        "meta_eccentricity": 3.727e-05,
        "meta_inclination": 0.0062,
        "meta_ra_of_asc_node": 152.2728,
        "meta_arg_of_pericenter": 268.7532,
        "meta_mean_anomaly": 347.0922,
        "meta_ephemeris_type": 0,
        "meta_classification_type": "U",
        "meta_norad_cat_id": 41589,
        "meta_element_set_no": 999,
        "meta_rev_at_epoch": 3474,
        "meta_bstar": 0,
        "meta_mean_motion_dot": -9e-08,
        "meta_mean_motion_ddot": 0,
        "tle_line1": "1 41589U 16038B   25342.24406354 -.00000009  00000+0  00000+0 0  9997",
        "tle_line2": "2 41589   0.0062 152.2728 0000372 268.7532 347.0922  1.00271014 34740"
      },
      "geometry": {
        "type": "Point",
        "coordinates": [
          -163.63407236211802,
          0.009684326284683837
        ]
      }
    }
  ]
}